SKYSAT-C1               
1 41601U 16040C   26190.03366107  .00006236  00000+0  17621-3 0  9993
2 41601  96.9560 220.5725 0000940   8.0156 352.1104 15.36676665561228
LAPAN-A3                
1 41603U 16040E   26190.31648035  .00002384  00000+0  76465-4 0  9991
2 41603  97.1499 185.7376 0008390 301.8479  58.1947 15.33253630558209
GAOFEN-3                
1 41727U 16049A   26190.28492384  .00000150  00000+0  58640-4 0  9991
2 41727  98.4020 197.7374 0001760  90.0645 270.0746 14.42218672521834
SKYSAT-C4               
1 41771U 16058B   26190.29725210  .00013809  00000+0  25396-3 0  9994
2 41771  96.9170 211.1523 0003288 126.7848 233.3706 15.49300988548891
SKYSAT-C5               
1 41772U 16058C   26190.27416359  .00005910  00000+0  18063-3 0  9991
2 41772  97.0462 229.9303 0002234 173.1452 186.9823 15.34229300547139
SKYSAT-C2               
1 41773U 16058D   26189.99420614  .00008655  00000+0  20102-3 0  9994
2 41773  97.0167 211.2736 0002219  17.2519 342.8804 15.42580195548416
SKYSAT-C3               
1 41774U 16058E   26189.98654813  .00017017  00000+0  26927-3 0  9997
2 41774  96.9004 220.0058 0002105 133.8993 226.2436 15.53501070549497
ALSAT-1B                
1 41785U 16059C   26190.26019936  .00000352  00000+0  63170-4 0  9990
2 41785  97.7758 198.0714 0009881 146.9890 213.1936 14.72292017523823
PATHFINDER 1            
1 41787U 16059E   26189.95295591  .00000405  00000+0  78883-4 0  9995
2 41787  97.8172 188.2474 0029507 134.7864 225.5749 14.67688385522901
SCATSAT 1               
1 41790U 16059H   26190.12519243  .00000892  00000+0  12362-3 0  9992
2 41790  98.1179 254.1168 0054768 175.9673 184.1991 14.79577282104834
GOKTURK 1A              
1 41875U 16073A   26190.27170755  .00000129  00000+0  34350-4 0  9994
2 41875  98.1220  84.5971 0001429  78.2093 281.9270 14.62790387512057
RESOURCESAT-2A          
1 41877U 16074A   26190.31162995  .00000154  00000+0  90529-4 0  9997
2 41877  98.7517 263.6349 0002704  41.5087 318.6295 14.21608361497441
CARTOSAT-2D             
1 41948U 17008A   26190.28871605  .00001337  00000+0  66625-4 0  9999
2 41948  97.4096 249.1802 0005468 155.8956 204.2536 15.19254397520938
SENTINEL-2B             
1 42063U 17013A   26190.30539760  .00000048  00000+0  35019-4 0  9991
2 42063  98.5681 264.7675 0001212  91.0551 269.0771 14.30814241487805
CARTOSAT-2E             
1 42767U 17036C   26190.30637109  .00002672  00000+0  13010-3 0  9994
2 42767  97.4264 249.7433 0002721 213.9289 146.1772 15.19225600501508
FORMOSAT-5              
1 42920U 17049A   26190.25901988  .00000058  00000+0  25671-4 0  9995
2 42920  98.2247 265.0779 0011740  21.7562 338.4130 14.50906751469877
SENTINEL-5P             
1 42969U 17064A   26190.26397104  .00000013  00000+0  27045-4 0  9993
2 42969  98.7929 132.2387 0001092  91.8163 268.3138 14.19522668452693
SKYSAT-C11              
1 42987U 17068A   26189.95234826  .00022191  00000+0  28563-3 0  9998
2 42987  97.4370 339.7521 0000810 165.1844 194.9436 15.59072059486636
SKYSAT-C10              
1 42988U 17068B   26190.32863844  .00008223  00000+0  24429-3 0  9997
2 42988  97.4524 327.4002 0001353 109.3567 250.7823 15.35037992485755
SKYSAT-C9               
1 42989U 17068C   26189.91566431  .00009180  00000+0  21637-3 0  9994
2 42989  97.4443 328.1278 0009097  64.5964 295.6223 15.42107438486108
SKYSAT-C8               
1 42990U 17068D   26190.33107143  .00007955  00000+0  21916-3 0  9993
2 42990  97.4542 327.2879 0001226  99.7409 260.3974 15.37414489485716
SKYSAT-C7               
1 42991U 17068E   26190.32537314  .00007824  00000+0  21581-3 0  9993
2 42991  97.4551 328.2732 0006247  40.5728 319.5982 15.37366215485777
SKYSAT-C6               
1 42992U 17068F   26190.32274073  .00006952  00000+0  21303-3 0  9997
2 42992  97.4588 328.1504 0005158 103.5299 256.6518 15.34103000485715
CARTOSAT-2F             
1 43111U 18004A   26190.33898605  .00001336  00000+0  66664-4 0  9997
2 43111  97.4779 249.7563 0002333 146.6146 213.5237 15.19239751470692
GAOFEN-1 02             
1 43259U 18031A   26190.32411850  .00000233  00000+0  40871-4 0  9999
2 43259  98.0514 252.7883 0001777 319.2748  40.8329 14.76466066445963
GAOFEN-1 03             
1 43260U 18031B   26190.30217977  .00000476  00000+0  75803-4 0  9995
2 43260  98.0507 252.6222 0002871  31.3278 328.8102 14.76457378445952
GAOFEN-1 04             
1 43262U 18031D   26190.34568559  .00000878  00000+0  13363-3 0  9994
2 43262  98.0515 252.8594 0001545  59.0276 301.1085 14.76467738445954
SENTINEL-3B             
1 43437U 18039A   26190.14034432  .00000049  00000+0  38281-4 0  9999
2 43437  98.6239 257.3566 0001006 120.1387 239.9893 14.26740920427251
GAOFEN-5 01             
1 43461U 18043A   26190.18876959  .00000231  00000+0  57672-4 0  9991
2 43461  98.4585 162.2388 0002424  44.0860 316.0533 14.60620928434902
GAOFEN-6                
1 43484U 18048A   26190.23234853 -.00000100  00000+0 -67782-5 0  9999
2 43484  98.0958 252.9203 0012128  98.3111 261.9474 14.76378180436645
