OBJECT_NAME,OBJECT_ID,EPOCH,MEAN_MOTION,ECCENTRICITY,INCLINATION,RA_OF_ASC_NODE,ARG_OF_PERICENTER,MEAN_ANOMALY,EPHEMERIS_TYPE,CLASSIFICATION_TYPE,NORAD_CAT_ID,ELEMENT_SET_NO,REV_AT_EPOCH,BSTAR,MEAN_MOTION_DOT,MEAN_MOTION_DDOT
SKYSAT-C1,2016-040C,2026-07-09T00:48:28.316448,15.36676665,.00009402,96.9560,220.5725,8.0156,352.1104,0,U,41601,999,56122,.17620549E-3,.6236E-4,0
LAPAN-A3,2016-040E,2026-07-09T07:35:43.902240,15.33253630,.00083905,97.1499,185.7376,301.8479,58.1947,0,U,41603,999,55820,.76464804E-4,.2384E-4,0
GAOFEN-3,2016-049A,2026-07-09T06:50:17.419776,14.42218672,.00017604,98.4020,197.7374,90.0645,270.0746,0,U,41727,999,52183,.586399E-4,.15E-5,0
SKYSAT-C4,2016-058B,2026-07-09T07:08:02.581440,15.49300988,.0003288,96.9170,211.1523,126.7848,233.3706,0,U,41771,999,54889,.25396276E-3,.13809E-3,0
SKYSAT-C5,2016-058C,2026-07-09T06:34:47.734176,15.34229300,.00022341,97.0462,229.9303,173.1452,186.9823,0,U,41772,999,54713,.18062853E-3,.591E-4,0
SKYSAT-C2,2016-058D,2026-07-08T23:51:39.410496,15.42580195,.00022198,97.0167,211.2736,17.2519,342.8804,0,U,41773,999,54841,.20101756E-3,.8655E-4,0
SKYSAT-C3,2016-058E,2026-07-08T23:40:37.758432,15.53501070,.00021056,96.9004,220.0058,133.8993,226.2436,0,U,41774,999,54949,.2692674E-3,.17017E-3,0
ALSAT-1B,2016-059C,2026-07-09T06:14:41.224704,14.72292017,.00098812,97.7758,198.0714,146.9890,213.1936,0,U,41785,999,52382,.63170442E-4,.352E-5,0
PATHFINDER 1,2016-059E,2026-07-08T22:52:15.390624,14.67688385,.00295076,97.8172,188.2474,134.7864,225.5749,0,U,41787,999,52290,.78882953E-4,.405E-5,0
SCATSAT 1,2016-059H,2026-07-09T03:00:16.625952,14.79577282,.00547688,98.1179,254.1168,175.9673,184.1991,0,U,41790,999,10483,.12362243E-3,.892E-5,0
GOKTURK 1A,2016-073A,2026-07-09T06:31:15.532320,14.62790387,.00014296,98.1220,84.5971,78.2093,281.9270,0,U,41875,999,51205,.34350011E-4,.129E-5,0
RESOURCESAT-2A,2016-074A,2026-07-09T07:28:44.827680,14.21608361,.00027046,98.7517,263.6349,41.5087,318.6295,0,U,41877,999,49744,.90528776E-4,.154E-5,0
CARTOSAT-2D,2017-008A,2026-07-09T06:55:45.066720,15.19254397,.00054686,97.4096,249.1802,155.8956,204.2536,0,U,41948,999,52093,.66624735E-4,.1337E-4,0
SENTINEL-2B,2017-013A,2026-07-09T07:19:46.352640,14.30814241,.00012125,98.5681,264.7675,91.0551,269.0771,0,U,42063,999,48780,.35018832E-4,.48E-6,0
CARTOSAT-2E,2017-036C,2026-07-09T07:21:10.462176,15.19225600,.00027214,97.4264,249.7433,213.9289,146.1772,0,U,42767,999,50150,.13009699E-3,.2672E-4,0
FORMOSAT-5,2017-049A,2026-07-09T06:12:59.317632,14.50906751,.00117406,98.2247,265.0779,21.7562,338.4130,0,U,42920,999,46987,.2567106E-4,.58E-6,0
SENTINEL-5P,2017-064A,2026-07-09T06:20:07.097856,14.19522668,.00010927,98.7929,132.2387,91.8163,268.3138,0,U,42969,999,45269,.2704477E-4,.13E-6,0
SKYSAT-C11,2017-068A,2026-07-08T22:51:22.889664,15.59072059,.00008107,97.4370,339.7521,165.1844,194.9436,0,U,42987,999,48663,.28562966E-3,.22191E-3,0
SKYSAT-C10,2017-068B,2026-07-09T07:53:14.361216,15.35037992,.00013533,97.4524,327.4002,109.3567,250.7823,0,U,42988,999,48575,.24429107E-3,.8223E-4,0
SKYSAT-C9,2017-068C,2026-07-08T21:58:33.396384,15.42107438,.0009097,97.4443,328.1278,64.5964,295.6223,0,U,42989,999,48610,.21637147E-3,.918E-4,0
SKYSAT-C8,2017-068D,2026-07-09T07:56:44.571552,15.37414489,.00012264,97.4542,327.2879,99.7409,260.3974,0,U,42990,999,48571,.21915602E-3,.7955E-4,0
SKYSAT-C7,2017-068E,2026-07-09T07:48:32.239296,15.37366215,.00062477,97.4551,328.2732,40.5728,319.5982,0,U,42991,999,48577,.21581406E-3,.7824E-4,0
SKYSAT-C6,2017-068F,2026-07-09T07:44:44.799072,15.34103000,.00051588,97.4588,328.1504,103.5299,256.6518,0,U,42992,999,48571,.21303205E-3,.6952E-4,0
CARTOSAT-2F,2018-004A,2026-07-09T08:08:08.394720,15.19239751,.00023333,97.4779,249.7563,146.6146,213.5237,0,U,43111,999,47069,.66664348E-4,.1336E-4,0
GAOFEN-1 02,2018-031A,2026-07-09T07:46:43.838400,14.76466066,.0001777,98.0514,252.7883,319.2748,40.8329,0,U,43259,999,44596,.40870776E-4,.233E-5,0
GAOFEN-1 03,2018-031B,2026-07-09T07:15:08.332128,14.76457378,.00028716,98.0507,252.6222,31.3278,328.8102,0,U,43260,999,44595,.75802754E-4,.476E-5,0
GAOFEN-1 04,2018-031D,2026-07-09T08:17:47.234976,14.76467738,.0001545,98.0515,252.8594,59.0276,301.1085,0,U,43262,999,44595,.13362527E-3,.878E-5,0
SENTINEL-3B,2018-039A,2026-07-09T03:22:05.749248,14.26740920,.0001006,98.6239,257.3566,120.1387,239.9893,0,U,43437,999,42725,.38280816E-4,.49E-6,0
GAOFEN-5 01,2018-043A,2026-07-09T04:31:49.692576,14.60620928,.00024241,98.4585,162.2388,44.0860,316.0533,0,U,43461,999,43490,.57671791E-4,.231E-5,0
GAOFEN-6,2018-048A,2026-07-09T05:34:34.912992,14.76378180,.00121289,98.0958,252.9203,98.3111,261.9474,0,U,43484,999,43664,-.6778197E-5,-.1E-5,0
